SCD 1                   
1 22490U 93009B   26182.93285610  .00000438  00000+0  68852-4 0  9998
2 22490  24.9688 116.5278 0041634 294.1707 126.9210 14.46124533763251
SCD 2                   
1 25504U 98060A   26182.88506216  .00000390  00000+0  57926-4 0  9998
2 25504  24.9966 341.5193 0016533 278.6953 216.4700 14.45531272462453
SENTINEL-1A             
1 39634U 14016A   26182.97319823 -.00000169  00000+0 -26141-4 0  9993
2 39634  98.1773 190.2898 0001382  86.0698 274.0659 14.59199020652174
SENTINEL-2A             
1 40697U 15028A   26182.96993940  .00000009  00000+0  20006-4 0  9990
2 40697  98.5687 257.6115 0001214  96.2489 263.8832 14.30818854575847
SENTINEL-3A             
1 41335U 16011A   26182.94384544  .00000124  00000+0  69261-4 0  9999
2 41335  98.6244 250.1152 0001437  94.9494 265.1850 14.26736714540165
SCATSAT 1               
1 41790U 16059H   26182.88893116  .00001393  00000+0  18906-3 0  9997
2 41790  98.1185 246.8066 0054227 199.3539 160.5613 14.79559343103765
SENTINEL-2B             
1 42063U 17013A   26182.96272281  .00000058  00000+0  38836-4 0  9997
2 42063  98.5694 257.5285 0001218  91.1545 268.9778 14.30820628486750
SENTINEL-2C             
1 60989U 24157A   26182.92777018  .00000112  00000+0  59447-4 0  9997
2 60989  98.5690 257.5012 0000901  94.2219 265.9067 14.30821767 95097
SENTINEL-1C             
1 62261U 24235A   26182.94401222 -.00000066  00000+0 -41968-5 0  9992
2 62261  98.1824 190.0409 0001278  90.1987 269.9359 14.59197793 83566
SENTINEL-1D             
1 66315U 25251A   26182.97844942  .00000042  00000+0  18650-4 0  9991
2 66315  98.1826 190.1298 0001351  89.4444 270.6911 14.59198750 34888
